{"type":"FeatureCollection","features":[{"type":"Feature","geometry":{"type":"Point","coordinates":[-4.737655100000005,41.6165027,0]},"properties":{"styleUrl":"#pointStyleMap","icon":"http://maps.google.com/mapfiles/kml/shapes/placemark_circle.png","calle":"Avenida de Zamora, 51","sector_antes":"Industria","sector_ahora":"Servicios","negocio_antes":"Ceylo","negocio_ahora":"Gas express","marker-size":"large"}},{"type":"Feature","geometry":{"type":"Point","coordinates":[-4.736130499999998,41.61886119999998,0]},"properties":{"styleUrl":"#pointStyleMap","icon":"http://maps.google.com/mapfiles/kml/shapes/placemark_circle.png","calle":"Calle Vázquez de Menchaca, 38","sector_antes":"Comercio","sector_ahora":"Comercio","negocio_antes":"Muebles hiper Tresillo","negocio_ahora":"Gadis","marker-size":"large"}},{"type":"Feature","geometry":{"type":"Point","coordinates":[-4.735225100000005,41.61886260000001,0]},"properties":{"styleUrl":"#pointStyleMap","icon":"http://maps.google.com/mapfiles/kml/shapes/placemark_circle.png","calle":"Calle Vázquez de Menchaca, 21","sector_antes":"Industria","sector_ahora":"Hostelería","negocio_antes":"Lanas Romera","negocio_ahora":"Miyaki sushi","marker-size":"large"}},{"type":"Feature","geometry":{"type":"Point","coordinates":[-4.735168899999991,41.61998769999998,0]},"properties":{"styleUrl":"#pointStyleMap","icon":"http://maps.google.com/mapfiles/kml/shapes/placemark_circle.png","calle":"Calle Vázquez de Menchaca, 36","sector_antes":"Industria","sector_ahora":"Ocio","negocio_antes":"Frigoríficos Callesa","negocio_ahora":"Salta King","marker-size":"large"}},{"type":"Feature","geometry":{"type":"Point","coordinates":[-4.733719799999996,41.62346610000002,0]},"properties":{"styleUrl":"#pointStyleMap","icon":"http://maps.google.com/mapfiles/kml/shapes/placemark_circle.png","calle":"Calle Vázquez de Menchaca, 18","sector_antes":"Industria","sector_ahora":"Servicios","negocio_antes":"Reciclado de Chatarra y Metales","negocio_ahora":"BIKI","marker-size":"large"}},{"type":"Feature","geometry":{"type":"Point","coordinates":[-4.730501400000011,41.62606439999997,0]},"properties":{"styleUrl":"#pointStyleMap","icon":"http://maps.google.com/mapfiles/kml/shapes/placemark_circle.png","calle":"Calle Vázquez de Menchaca, 1","sector_antes":"Comercio","sector_ahora":"Deporte","negocio_antes":"LibreDis","negocio_ahora":"Crossfit Argales","marker-size":"large"}},{"type":"Feature","geometry":{"type":"Point","coordinates":[-4.730467500000004,41.62456320000003,0]},"properties":{"styleUrl":"#pointStyleMap","icon":"http://maps.google.com/mapfiles/kml/shapes/placemark_circle.png","calle":"Calle Vázquez de Menchaca, 5","sector_antes":"Comercio","sector_ahora":"Comercio","negocio_antes":"Liquidatodo muebles","negocio_ahora":"La Traca","marker-size":"large"}},{"type":"Feature","geometry":{"type":"Point","coordinates":[-4.736130499999998,41.61886119999998,0]},"properties":{"styleUrl":"#pointStyleMap","icon":"http://maps.google.com/mapfiles/kml/shapes/placemark_circle.png","calle":"Calle Vázquez de Menchaca, 38","sector_antes":"Industria","sector_ahora":"Hostelería","negocio_antes":"Imprenta Manolete","negocio_ahora":"Burger King","marker-size":"large"}},{"type":"Feature","geometry":{"type":"Point","coordinates":[-4.735181799999999,41.6181436,0]},"properties":{"styleUrl":"#pointStyleMap","icon":"http://maps.google.com/mapfiles/kml/shapes/placemark_circle.png","calle":"Calle Vázquez de Menchaca, 23","sector_antes":"Servicios","sector_ahora":"Ocio","negocio_antes":"Transportes Souto","negocio_ahora":"The Players","marker-size":"large"}},{"type":"Feature","geometry":{"type":"Point","coordinates":[-4.73334729999999,41.62175479999999,0]},"properties":{"styleUrl":"#pointStyleMap","icon":"http://maps.google.com/mapfiles/kml/shapes/placemark_circle.png","calle":"Calle Vázquez de Menchaca, 15","sector_antes":"Industria","sector_ahora":"Industria","negocio_antes":"Hormigones Rodríguez","negocio_ahora":"Elecnor","marker-size":"large"}},{"type":"Feature","geometry":{"type":"Point","coordinates":[-4.736427200000007,41.61831829999998,0]},"properties":{"styleUrl":"#pointStyleMap","icon":"http://maps.google.com/mapfiles/kml/shapes/placemark_circle.png","calle":"Calle Vázquez de Menchaca, 42","sector_antes":"Servicios","sector_ahora":"Comercio","negocio_antes":"Ricalsa","negocio_ahora":"Flume","marker-size":"large"}},{"type":"Feature","geometry":{"type":"Point","coordinates":[-4.737655100000005,41.6165027,0]},"properties":{"styleUrl":"#pointStyleMap","icon":"http://maps.google.com/mapfiles/kml/shapes/placemark_circle.png","calle":"Calle Bronce, 2","sector_antes":"Comercio","sector_ahora":"Hostelería","negocio_antes":"Mimo Sofá","negocio_ahora":"Antequera GP","marker-size":"large"}},{"type":"Feature","geometry":{"type":"Point","coordinates":[-4.735556599999995,41.61503599999999,0]},"properties":{"styleUrl":"#pointStyleMap","icon":"http://maps.google.com/mapfiles/kml/shapes/placemark_circle.png","calle":"Calle Bronce, 0","sector_antes":"Comercio","sector_ahora":"Comercio","negocio_antes":"Decoración Alonso","negocio_ahora":"J.Abad Codelco (Fontanería)","marker-size":"large"}},{"type":"Feature","geometry":{"type":"Point","coordinates":[-4.735418900000012,41.61503190000001,0]},"properties":{"styleUrl":"#pointStyleMap","icon":"http://maps.google.com/mapfiles/kml/shapes/placemark_circle.png","calle":"Calle Bronce, 1","sector_antes":"Asociación","sector_ahora":"Servicios","negocio_antes":"Aspaym","negocio_ahora":"NGP automoción","marker-size":"large"}},{"type":"Feature","geometry":{"type":"Point","coordinates":[-4.732957199999987,41.62751300000001,0]},"properties":{"styleUrl":"#pointStyleMap","icon":"http://maps.google.com/mapfiles/kml/shapes/placemark_circle.png","calle":"Avenida de el Norte de Castilla, 3","sector_antes":"Industria","sector_ahora":"Educación","negocio_antes":"Lex Nova","negocio_ahora":"Centro Formación Profesional","marker-size":"large"}},{"type":"Feature","geometry":{"type":"Point","coordinates":[-4.736610899999998,41.62025190000002,0]},"properties":{"styleUrl":"#pointStyleMap","icon":"http://maps.google.com/mapfiles/kml/shapes/placemark_circle.png","calle":"Avenida de el Norte de Castilla, 50","sector_antes":"Comercio","sector_ahora":"Servicios","negocio_antes":"Ladecor","negocio_ahora":"Mapfre","marker-size":"large"}},{"type":"Feature","geometry":{"type":"Point","coordinates":[-4.736041199999983,41.61988769999998,0]},"properties":{"styleUrl":"#pointStyleMap","icon":"http://maps.google.com/mapfiles/kml/shapes/placemark_circle.png","calle":"Avenida de el Norte de Castilla, 49","sector_antes":"Servicio","sector_ahora":"Comercio","negocio_antes":"Lavandería Yoga","negocio_ahora":"Venta fruta","marker-size":"large"}},{"type":"Feature","geometry":{"type":"Point","coordinates":[-4.736824500000005,41.62056620000001,0]},"properties":{"styleUrl":"#pointStyleMap","icon":"http://maps.google.com/mapfiles/kml/shapes/placemark_circle.png","calle":"Avenida de el Norte de Castilla, 48","sector_antes":"Servicio","sector_ahora":"Comercio","negocio_antes":"Lavandería Flisa","negocio_ahora":"Compra metales Met & Fer","marker-size":"large"}},{"type":"Feature","geometry":{"type":"Point","coordinates":[-4.735982599999991,41.62294170000003,0]},"properties":{"styleUrl":"#pointStyleMap","icon":"http://maps.google.com/mapfiles/kml/shapes/placemark_circle.png","calle":"Avenida de el Norte de Castilla, 32","sector_antes":"Servicio","sector_ahora":"Ocio","negocio_antes":"Correos y Telégrafos","negocio_ahora":"Geko Aventura","marker-size":"large"}},{"type":"Feature","geometry":{"type":"Point","coordinates":[-4.734966899999984,41.6242769,0]},"properties":{"styleUrl":"#pointStyleMap","icon":"http://maps.google.com/mapfiles/kml/shapes/placemark_circle.png","calle":"Avenida de el Norte de Castilla, 22,","sector_antes":"Comercio","sector_ahora":"Deporte","negocio_antes":"Parsins caramelos","negocio_ahora":"Vacceos Box","marker-size":"large"}},{"type":"Feature","geometry":{"type":"Point","coordinates":[-4.733169299999991,41.6291433,0]},"properties":{"styleUrl":"#pointStyleMap","icon":"http://maps.google.com/mapfiles/kml/shapes/placemark_circle.png","calle":"Avenida de el Norte de Castilla, 2","sector_antes":"Industria","sector_ahora":"Servicios","negocio_antes":"Aceros Heva","negocio_ahora":"Taller Amaro Cerezo","marker-size":"large"}},{"type":"Feature","geometry":{"type":"Point","coordinates":[-4.733001300000019,41.62650899999998,0]},"properties":{"styleUrl":"#pointStyleMap","icon":"http://maps.google.com/mapfiles/kml/shapes/placemark_circle.png","calle":"Avenida de el Norte de Castilla, 9","sector_antes":"Servicios","sector_ahora":"Comercio","negocio_antes":"Talleres Gerardo Sanz","negocio_ahora":"Hipertresillo","marker-size":"large"}},{"type":"Feature","geometry":{"type":"Point","coordinates":[-4.733779700000015,41.6270912,0]},"properties":{"styleUrl":"#pointStyleMap","icon":"http://maps.google.com/mapfiles/kml/shapes/placemark_circle.png","calle":"Avenida de el Norte de Castilla, 14","sector_antes":"Servicios","sector_ahora":"Comercio","negocio_antes":"GBO SL","negocio_ahora":"Milantiguo","marker-size":"large"}},{"type":"Feature","geometry":{"type":"Point","coordinates":[-4.732709100000003,41.62808880000001,0]},"properties":{"styleUrl":"#pointStyleMap","icon":"http://maps.google.com/mapfiles/kml/shapes/placemark_circle.png","calle":"Avenida de el Norte de Castilla, 1","sector_antes":"Industria","sector_ahora":"Servicios","negocio_antes":"Cevelsa","negocio_ahora":"Pensión","marker-size":"large"}},{"type":"Feature","geometry":{"type":"Point","coordinates":[-4.7272677,41.61997500000001,0]},"properties":{"styleUrl":"#pointStyleMap","icon":"http://maps.google.com/mapfiles/kml/shapes/placemark_circle.png","calle":"Avenida Madrid, 22","sector_antes":"Comercio","sector_ahora":"Ocio","negocio_antes":"Peugot","negocio_ahora":"Puppy Park","marker-size":"large"}},{"type":"Feature","geometry":{"type":"Point","coordinates":[-4.736728100000002,41.62382120000002,0]},"properties":{"styleUrl":"#pointStyleMap","icon":"http://maps.google.com/mapfiles/kml/shapes/placemark_circle.png","calle":"Calle de Pilar Miró, 29","sector_antes":"Comercio","sector_ahora":"Comercio","negocio_antes":"Thisa (Fontantería)","negocio_ahora":"Novelec (Electricidad)","marker-size":"large"}},{"type":"Feature","geometry":{"type":"Point","coordinates":[-4.73591980000001,41.62654690000001,0]},"properties":{"styleUrl":"#pointStyleMap","icon":"http://maps.google.com/mapfiles/kml/shapes/placemark_circle.png","calle":"Calle de Pilar Miró, 21","sector_antes":"Servicio","sector_ahora":"Servicio","negocio_antes":"Tourline Express (transporte, mensajería, logística)","negocio_ahora":"Grúas Ávila","marker-size":"large"}},{"type":"Feature","geometry":{"type":"Point","coordinates":[-4.735837400000007,41.6294224,0]},"properties":{"styleUrl":"#pointStyleMap","icon":"http://maps.google.com/mapfiles/kml/shapes/placemark_circle.png","calle":"Calle de Pilar Miró, 1","sector_antes":"Servicio","sector_ahora":"Servicio","negocio_antes":"Grafolex (Empresa artes gráficas)","negocio_ahora":"Biodata Devices","marker-size":"large"}},{"type":"Feature","geometry":{"type":"Point","coordinates":[-4.728997700000015,41.62780019999999,0]},"properties":{"styleUrl":"#pointStyleMap","icon":"http://maps.google.com/mapfiles/kml/shapes/placemark_circle.png","calle":"Calle de Daniel del Olmo González, 41","sector_antes":"Comercio","sector_ahora":"Servicio","negocio_antes":"Compra venta vehículos","negocio_ahora":"Plenergy","marker-size":"large"}},{"type":"Feature","geometry":{"type":"Point","coordinates":[-4.732394600000001,41.6275854,0]},"properties":{"styleUrl":"#pointStyleMap","icon":"http://maps.google.com/mapfiles/kml/shapes/placemark_circle.png","calle":"Calle de Daniel del Olmo González, 16","sector_antes":"Comercio","sector_ahora":"Servicio","negocio_antes":"Telefurgó","negocio_ahora":"PetroPrix","marker-size":"large"}},{"type":"Feature","geometry":{"type":"Point","coordinates":[-4.732050399999999,41.6278439,0]},"properties":{"styleUrl":"#pointStyleMap","icon":"http://maps.google.com/mapfiles/kml/shapes/placemark_circle.png","calle":"Calle de Daniel del Olmo González, 19","sector_antes":"Industria","sector_ahora":"Ocio","negocio_antes":"Panificadora Manrique","negocio_ahora":"Parque Infantil","marker-size":"large"}},{"type":"Feature","geometry":{"type":"Point","coordinates":[-4.733775700000004,41.6277574,0]},"properties":{"styleUrl":"#pointStyleMap","icon":"http://maps.google.com/mapfiles/kml/shapes/placemark_circle.png","calle":"Calle de Daniel del Olmo González, 14","sector_antes":"Banco","sector_ahora":"Servicios","negocio_antes":"Banco de Castilla","negocio_ahora":"Federación de Golf de CyL","marker-size":"large"}},{"type":"Feature","geometry":{"type":"Point","coordinates":[-4.734463400000011,41.62806019999999,0]},"properties":{"styleUrl":"#pointStyleMap","icon":"http://maps.google.com/mapfiles/kml/shapes/placemark_circle.png","calle":"Calle de Daniel del Olmo González, 10","sector_antes":"Industria","sector_ahora":"Servicio","negocio_antes":"HEVA","negocio_ahora":"Megarueda","marker-size":"large"}},{"type":"Feature","geometry":{"type":"Point","coordinates":[-4.734141599999983,41.62858619999999,0]},"properties":{"styleUrl":"#pointStyleMap","icon":"http://maps.google.com/mapfiles/kml/shapes/placemark_circle.png","calle":"Calle de Daniel del Olmo González, 9","sector_antes":"Comercio","sector_ahora":"Servicio","negocio_antes":"Muebles de todo en La Vaca","negocio_ahora":"Inhostel","marker-size":"large"}},{"type":"Feature","geometry":{"type":"Point","coordinates":[-4.734699799999986,41.62812239999999,0]},"properties":{"styleUrl":"#pointStyleMap","icon":"http://maps.google.com/mapfiles/kml/shapes/placemark_circle.png","calle":"Calle de Daniel del Olmo González, 8","sector_antes":"Industria","sector_ahora":"Hostelería","negocio_antes":"Alco","negocio_ahora":"Eleven","marker-size":"large"}},{"type":"Feature","geometry":{"type":"Point","coordinates":[-4.734699799999986,41.62812239999999,0]},"properties":{"styleUrl":"#pointStyleMap","icon":"http://maps.google.com/mapfiles/kml/shapes/placemark_circle.png","calle":"Calle de Daniel del Olmo González, 8","sector_antes":"Industria","sector_ahora":"Ocio","negocio_antes":"Alco","negocio_ahora":"Ingoal (indoor sport club)","marker-size":"large"}},{"type":"Feature","geometry":{"type":"Point","coordinates":[-4.735169100000007,41.62867799999999,0]},"properties":{"styleUrl":"#pointStyleMap","icon":"http://maps.google.com/mapfiles/kml/shapes/placemark_circle.png","calle":"Calle de Daniel del Olmo González, 1","sector_antes":"Industria","sector_ahora":"Comercio","negocio_antes":"Garsesa (Señalizaciones tráfico)","negocio_ahora":"Argales Center (Hiper Bazar)","marker-size":"large"}},{"type":"Feature","geometry":{"type":"Point","coordinates":[-4.733778999999998,41.62471040000001,0]},"properties":{"styleUrl":"#pointStyleMap","icon":"http://maps.google.com/mapfiles/kml/shapes/placemark_circle.png","calle":"Calle Forja, 15","sector_antes":"Comercio","sector_ahora":"Deportes","negocio_antes":"ARC Automóviles","negocio_ahora":"Go Basket","marker-size":"large"}},{"type":"Feature","geometry":{"type":"Point","coordinates":[-4.734224599999997,41.62931829999997,0]},"properties":{"styleUrl":"#pointStyleMap","icon":"http://maps.google.com/mapfiles/kml/shapes/placemark_circle.png","calle":"Calle Metal, 6","sector_antes":"Industria","sector_ahora":"Servicio","negocio_antes":"Elecnor","negocio_ahora":"La Vid Iglesia","marker-size":"large"}},{"type":"Feature","geometry":{"type":"Point","coordinates":[-4.733637399999992,41.62907669999997,0]},"properties":{"styleUrl":"#pointStyleMap","icon":"http://maps.google.com/mapfiles/kml/shapes/placemark_circle.png","calle":"Calle Metal, 10","sector_antes":"Comercio","sector_ahora":"Servicio","negocio_antes":"Javier Artículos Regalo","negocio_ahora":"Iglesia Evangleíca Vino nuevo","marker-size":"large"}},{"type":"Feature","geometry":{"type":"Point","coordinates":[-4.734744200000003,41.62959049999999,0]},"properties":{"styleUrl":"#pointStyleMap","icon":"http://maps.google.com/mapfiles/kml/shapes/placemark_circle.png","calle":"Calle Metal, 2","sector_antes":"Industria","sector_ahora":"Comercio","negocio_antes":"Electrónicos Pisuerga","negocio_ahora":"Distribuidor Canon","marker-size":"large"}},{"type":"Feature","geometry":{"type":"Point","coordinates":[-4.731956300000006,41.62971019999999,0]},"properties":{"styleUrl":"#pointStyleMap","icon":"http://maps.google.com/mapfiles/kml/shapes/placemark_circle.png","calle":"Calle Metal, 13","sector_antes":"Comercio","sector_ahora":"Comercio","negocio_antes":"Urende Electrodomésticos","negocio_ahora":"Top Cash","marker-size":"large"}}]}