{"type":"FeatureCollection","features":[{"type":"Feature","properties":{"zona":"Prosperidad","calle":"Avenida de los Reyes de España, Paseo del Rector Esperabé, Glorieta de la Ciudad de Brujas, Paseo de Canalejas, Calle Jardines, Paseo San Antonio, Glorieta Cuatro Caminos, Camino de las Aguas, Calle Independencia, Camino Estrecho de la Aldehuela, Calle Lugo, Paseo del Rollo, Plaza Alto del Rollo, Calle Filipinas, Calle de Jesús Arambarri, Glorieta de la Flecha, Calle Jesús de Arambarri, Carretera de Cabrerizos, Río Tormes, Puente de Enrique Estevan y Avenida de los Reyes de España"},"geometry":{"type":"Polygon","coordinates":[[[-5.665936,40.956632],[-5.663511,40.954687],[-5.661728,40.954108],[-5.65744,40.955005],[-5.65414,40.956657],[-5.649403,40.957912],[-5.644811,40.960546],[-5.641411,40.960178],[-5.639623,40.958356],[-5.636686,40.95475],[-5.633261,40.953079],[-5.630188,40.953858],[-5.629238,40.954717],[-5.628288,40.955255],[-5.627563,40.95618],[-5.627388,40.957974],[-5.624716,40.962698],[-5.623949,40.963507],[-5.618861,40.97053],[-5.618229,40.970907],[-5.622354,40.976503],[-5.625507,40.9763],[-5.6293,40.97467],[-5.631392,40.974454],[-5.635162,40.973496],[-5.636758,40.972722],[-5.639117,40.972141],[-5.643543,40.9703],[-5.644943,40.969869],[-5.647255,40.968623],[-5.650238,40.966897],[-5.649441,40.966265],[-5.648462,40.964316],[-5.649188,40.964039],[-5.652562,40.964286],[-5.652798,40.964156],[-5.653969,40.964732],[-5.657171,40.964682],[-5.657464,40.959043],[-5.659765,40.959844],[-5.660808,40.958003],[-5.664712,40.958894],[-5.665936,40.956632]]]}},{"type":"Feature","properties":{"zona":"La Alamedilla","calle":"Glorieta Cuatro Caminos, Paseo San Antonio, Paseo de Canalejas, Plaza de España, Paseo de la Estación, Glorieta del Coronel Antonio Heredero Gil, Calle de la Televisión, Glorieta de Antonio Machado, Avenida de los Comuneros, Plaza Alto del Rollo, Paseo del Rollo, Calle Lugo, Camino Estrecho de la Aldehuela, Calle Independencia, Camino de las Aguas, Glorieta Cuatro Caminos"},"geometry":{"type":"Polygon","coordinates":[[[-5.653967,40.96475],[-5.652798,40.964179],[-5.652566,40.964321],[-5.649178,40.964062],[-5.648499,40.964318],[-5.649469,40.966246],[-5.650295,40.966898],[-5.647275,40.968648],[-5.652517,40.968629],[-5.653572,40.969474],[-5.653796,40.970126],[-5.658423,40.968596],[-5.658576,40.968171],[-5.657768,40.966348],[-5.65807,40.964805],[-5.657171,40.964698],[-5.653967,40.96475]]]}},{"type":"Feature","properties":{"zona":"Garrido Sur","calle":"Glorieta de Doña Urraca, Calle María Auxiliadora, Avenida de Portugal, Glorieta del Coronel Antonio Heredero Gil, Calle de la Televisión, Glorieta de Antonio Machado, Avenida de los Comuneros, Plaza Alto del Rollo, Calle Filipinas, Calle de Jesús Arambarri, Glorieta de la Flecha, Calle de Jesús Arambarri, Carretera de Cabrerizos, Paseo de los Madroños, Plaza de Barcelona, Calle El Greco, Avenida Alfonso IX de León, Glorieta de Doña Urraca."},"geometry":{"type":"Polygon","coordinates":[[[-5.656073,40.9747],[-5.658163,40.97124],[-5.653789,40.970154],[-5.653556,40.96948],[-5.652517,40.968646],[-5.647222,40.968664],[-5.644954,40.969887],[-5.643549,40.970323],[-5.63912,40.972163],[-5.63676,40.972737],[-5.635167,40.973514],[-5.631403,40.974471],[-5.635051,40.977487],[-5.647377,40.974402],[-5.651188,40.972704],[-5.656073,40.9747]]]}},{"type":"Feature","properties":{"zona":"San Juan","calle":"Plaza de España, Paseo de la Estación, Glorieta del Coronel Antonio Heredero Gil, Avenida de Portugal, Calle María Auxiliadora, Glorieta de Doña Urraca, Avenida Alfonso IX de León, Plaza de Madrid, Avenida Alfonso VI, Avenida de San Agustín, Glorieta Santiago Martín «El Viti», Paseo del Doctor Torres Villarroel, Plaza Puerta de Zamora, Calle Zamora, Calle Rector Lucena, Calle Toro, Calle Corrales de Monroy, Calle Cristo de los Milagros, Calle Toro, Plaza de España"},"geometry":{"type":"Polygon","coordinates":[[[-5.658462,40.96862],[-5.653822,40.970141],[-5.658219,40.97123],[-5.656088,40.974705],[-5.658946,40.975699],[-5.65962,40.975565],[-5.661659,40.976277],[-5.662341,40.975787],[-5.662785,40.974964],[-5.663257,40.972341],[-5.663546,40.970303],[-5.664045,40.967174],[-5.663005,40.967021],[-5.662369,40.966756],[-5.661249,40.967829],[-5.660784,40.967595],[-5.659852,40.968076],[-5.659686,40.968459],[-5.659631,40.968473],[-5.659238,40.967858],[-5.658594,40.968177],[-5.658462,40.96862]]]}},{"type":"Feature","properties":{"zona":"Universidad-Centro","calle":"Avenida de los Reyes de España, Paseo del Rector Esperabé, Glorieta de la Ciudad de Brujas, Paseo de Canalejas, Calle Jardines, Paseo San Antonio, Paseo de Canalejas, Plaza de España, Calle Toro, Calle Cristo de los Milagros, Calle Corrales de Monroy, Calle Toro, Calle Rector Lucena, Calle Zamora, Plaza Puerta de Zamora, Paseo de Carmelitas, Paseo de San Vicente, Glorieta del Personal Sanitario, Río Tormes, Puente de Enrique Estevan, Avenida de los Reyes de España."},"geometry":{"type":"Polygon","coordinates":[[[-5.665996,40.95669],[-5.664751,40.95894],[-5.66082,40.958032],[-5.659798,40.959868],[-5.657491,40.95907],[-5.657208,40.964678],[-5.65812,40.964797],[-5.657791,40.966346],[-5.658595,40.968155],[-5.659248,40.967826],[-5.659646,40.968453],[-5.659672,40.968447],[-5.659818,40.968071],[-5.660777,40.967568],[-5.661251,40.967802],[-5.662371,40.966727],[-5.663016,40.967006],[-5.664071,40.967161],[-5.663613,40.970006],[-5.665049,40.969763],[-5.667033,40.968629],[-5.66922,40.966868],[-5.671246,40.965728],[-5.672467,40.964833],[-5.673053,40.963797],[-5.675269,40.961492],[-5.673316,40.96015],[-5.669287,40.959072],[-5.667612,40.958098],[-5.665996,40.95669]]]}},{"type":"Feature","properties":{"zona":"San Bernardo-Oeste","calle":"Glorieta del Personal Sanitario, Paseo de San Vicente, Paseo de Carmelitas, Plaza Puerta de Zamora, Paseo del Doctor Torres Villarroel, Avenida de Portugal, Glorieta Filiberto Villalobos, Avenida Alfonso XI, Glorieta de San Marcelino Champagnat, Avenida Obispo Sancho de Castilla, Glorieta Obispo Bobadilla, Avenida de Mariano Rodríguez Sánchez, Río Tormes, Glorieta del Personal Sanitario"},"geometry":{"type":"Polygon","coordinates":[[[-5.675325,40.961527],[-5.673075,40.963827],[-5.672502,40.964863],[-5.671261,40.965773],[-5.669252,40.966888],[-5.667056,40.968657],[-5.665047,40.969803],[-5.66362,40.970029],[-5.663249,40.972503],[-5.664297,40.972702],[-5.666126,40.972929],[-5.669292,40.972935],[-5.671321,40.972877],[-5.672295,40.973203],[-5.677064,40.973121],[-5.677374,40.972746],[-5.680934,40.972098],[-5.681262,40.97378],[-5.684671,40.976227],[-5.686735,40.978807],[-5.687973,40.979661],[-5.689895,40.980336],[-5.694832,40.972227],[-5.698546,40.96804],[-5.701624,40.962277],[-5.704269,40.959305],[-5.702209,40.957653],[-5.699029,40.957346],[-5.694806,40.957173],[-5.693127,40.958172],[-5.691525,40.960765],[-5.684929,40.963506],[-5.680681,40.963659],[-5.677526,40.96218],[-5.675325,40.961527]]]}},{"type":"Feature","properties":{"zona":"Pizarrales","calle":"Plaza del Barrio Vidal, Calle del Regato del Anís, Calle Transportistas, Calle Plateros, Calle Herreros, Calle Monte Carmelo, Calle Río Jordán, Calle Nazaret, Calle Belén, Calle San Felipe, Calle San Ignacio de Loyola, Calle Santa Bárbara, Calle San Arcadio, Calle de los Toneleros, Calle Marineros, Calle Calixto y Melibea, Calle Afiladores, Calle Hilanderas, Carretera de Ledesma, Avenida de Mariano Rodríguez Sánchez, Glorieta Obispo Bobadilla, Avenida Obispo Sancho de Castilla, Glorieta de San Marcelino Champagnat, Avenida Alfonso XI, Glorieta Filiberto Villalobos, Avenida de Portugal, Calle Mallorca, Plaza del Barrio Vidal"},"geometry":{"type":"Polygon","coordinates":[[[-5.666987,40.974135],[-5.667503,40.974131],[-5.667498,40.975388],[-5.667794,40.975398],[-5.668104,40.976045],[-5.66932,40.976051],[-5.66938,40.976808],[-5.6692,40.976803],[-5.669232,40.977439],[-5.669955,40.977739],[-5.669936,40.977833],[-5.671809,40.978035],[-5.671779,40.978228],[-5.672959,40.978355],[-5.672791,40.979368],[-5.674265,40.979339],[-5.675087,40.979306],[-5.67577,40.979186],[-5.676047,40.979984],[-5.67748,40.981213],[-5.684793,40.986366],[-5.687041,40.984463],[-5.688245,40.983321],[-5.689884,40.980396],[-5.687958,40.979702],[-5.686684,40.978843],[-5.684644,40.976243],[-5.684081,40.975936],[-5.681222,40.973781],[-5.680921,40.972123],[-5.677387,40.97277],[-5.677074,40.973142],[-5.672291,40.973222],[-5.671305,40.972891],[-5.669301,40.972953],[-5.667007,40.972945],[-5.666987,40.974135]]]}},{"type":"Feature","properties":{"zona":"Capuchinos","calle":"Plaza del Barrio Vidal, Calle del Regato del Anís, Calle Transportistas, Calle Plateros, Calle Herreros, Calle Monte Carmelo, Calle Río Jordán, Calle Nazaret, Calle Belén, Calle San Felipe, Calle San Ignacio de Loyola, Calle Santa Bárbara, Calle San Arcadio, Calle de los Toneleros, Calle Marineros, Calle Calixto y Melibea, Calle Afiladores, Calle Hilanderas, Carretera de Ledesma, Carretera de Zamora, Avenida Agustinos Recoletos, Glorieta Ruta de la Plata, Avenida Raimundo de Borgoña, Glorieta Santiago Martín «El Viti», Paseo del Doctor Torres Villarroel, Avenida de Portugal, Calle Mallorca, Plaza del Barrio Vidal."},"geometry":{"type":"Polygon","coordinates":[[[-5.666977,40.974161],[-5.666991,40.972947],[-5.66612,40.972942],[-5.664304,40.972722],[-5.663254,40.972513],[-5.66282,40.974972],[-5.662366,40.975792],[-5.662802,40.97588],[-5.66327,40.979029],[-5.666848,40.998673],[-5.674519,40.996353],[-5.679112,40.99119],[-5.682172,40.988174],[-5.684753,40.98639],[-5.677608,40.981339],[-5.676032,40.979992],[-5.675759,40.979204],[-5.675073,40.979319],[-5.674165,40.979356],[-5.672772,40.979385],[-5.672942,40.978363],[-5.671762,40.978245],[-5.671793,40.978043],[-5.66992,40.977846],[-5.669944,40.97775],[-5.669219,40.977451],[-5.669184,40.976793],[-5.669365,40.976796],[-5.669307,40.976062],[-5.668092,40.976059],[-5.667787,40.975409],[-5.667482,40.975406],[-5.667474,40.974153],[-5.666977,40.974161]]]}}]}